IRIDIUM 8 [+]           
1 24792U 97020A   15351.55373936  .00000062  00000-0  15207-4 0  9995
2 24792  86.3965 187.5988 0002032  88.4575 271.6854 14.34218639974704
IRIDIUM 7 [+]           
1 24793U 97020B   15351.54737927  .00000089  00000-0  24573-4 0  9994
2 24793  86.3970 187.8544 0002010  88.9317 271.2109 14.34221214974709
IRIDIUM 6 [+]           
1 24794U 97020C   15351.54092432  .00000016  00000-0 -13286-5 0  9991
2 24794  86.3969 187.8001 0001973  87.5291 272.6130 14.34218551974708
IRIDIUM 5 [+]           
1 24795U 97020D   15351.60447494  .00000030  00000-0  36779-5 0  9998
2 24795  86.3948 187.8251 0001848  90.0054 270.1354 14.34219954974798
IRIDIUM 4 [-]           
1 24796U 97020E   15351.59212328  .00000218  00000-0  69686-4 0  9993
2 24796  86.3963 187.0917 0002162  88.5023 348.2638 14.35020974974778
IRIDIUM 914 [-]         
1 24836U 97030A   15351.55856012  .00000225  00000-0  66924-4 0  9999
2 24836  86.3949 205.3120 0003693  96.7621 323.3414 14.38622760970217
IRIDIUM 12 [+]          
1 24837U 97030B   15351.56289228  .00000231  00000-0  75601-4 0  9999
2 24837  86.3972 218.9762 0001996  86.9349 335.2487 14.34217271968456
IRIDIUM 10 [+]          
1 24839U 97030D   15351.61849130  .00000231  00000-0  75470-4 0  9995
2 24839  86.3971 218.9361 0002028  86.7657 327.7853 14.34217893968474
IRIDIUM 13 [+]          
1 24840U 97030E   15351.56921801  .00000229  00000-0  74785-4 0  9992
2 24840  86.3974 219.0851 0001958  91.6167 330.5098 14.34218082968459
IRIDIUM 16 [-]          
1 24841U 97030F   15351.61003801  .00000221  00000-0  68385-4 0  9991
2 24841  86.4053 219.2826 0000455 343.2087  16.9095 14.36588296968968
IRIDIUM 911 [-]         
1 24842U 97030G   15351.59990369  .00000266  00000-0  70791-4 0  9996
2 24842  86.4481 220.3893 0016525 106.9989 313.8660 14.44783798973877
IRIDIUM 15 [+]          
1 24869U 97034A   15351.43114821  .00000317  00000-0  10599-3 0  9999
2 24869  86.3979 250.7439 0002021  84.9570  32.6997 14.34214520965407
IRIDIUM 17 [-]          
1 24870U 97034B   15351.44784203  .00000257  00000-0  82511-4 0  9996
2 24870  86.3985 249.6090 0001932 114.9481  12.3050 14.35611515965570
IRIDIUM 920 [-]         
1 24871U 97034C   15351.59108008  .00000235  00000-0  69145-4 0  9990
2 24871  86.3995 237.0570 0011392 351.9844  53.0355 14.39345804967585
IRIDIUM 18 [+]          
1 24872U 97034D   15351.57962449  .00000311  00000-0  10382-3 0  9999
2 24872  86.3981 250.9080 0001956  81.1341 279.0076 14.34214234965428
IRIDIUM 921 [-]         
1 24873U 97034E   15351.59302851  .00002876  00000-0  17676-3 0  9998
2 24873  86.3932 324.4813 0005638 219.1908 262.4507 15.09650269  5435
IRIDIUM 26 [-]          
1 24903U 97043A   15351.58697569  .00000246  00000-0  79156-4 0  9995
2 24903  86.3975 124.0795 0001933  88.7483 333.3875 14.35139962959435
IRIDIUM 25 [+]          
1 24904U 97043B   15351.45810049  .00000055  00000-0  12429-4 0  9990
2 24904  86.3969 124.4379 0001833  92.2032 267.9374 14.34216730959311
IRIDIUM 46 [+]          
1 24905U 97043C   15351.54055688  .00000271  00000-0  89619-4 0  9996
2 24905  86.3978 124.9068 0002009  91.8718 268.2708 14.34217115959339
IRIDIUM 23 [S]          
1 24906U 97043D   15351.47713237  .00000282  00000-0  93497-4 0  9991
2 24906  86.3984 124.3949 0001985  89.5993 335.9708 14.34216432959333
IRIDIUM 22 [+]          
1 24907U 97043E   15351.43907950  .00000272  00000-0  90130-4 0  9995
2 24907  86.3980 125.0507 0002007  93.7110 266.4315 14.34216705959315
DUMMY MASS 1 [-]        
1 24925U 97048A   15350.90747460  .00000262  00000-0  27422-4 0  9992
2 24925  86.3357 296.1405 0007389 161.7003 198.4488 14.85025068989993
DUMMY MASS 2 [-]        
1 24926U 97048B   15351.42255843  .00000267  00000-0  28230-4 0  9993
2 24926  86.3357 296.9290 0007934 168.5919 313.7174 14.84794484990159
IRIDIUM 29 [-]          
1 24944U 97051A   15351.50204927  .00000245  00000-0  79988-4 0  9995
2 24944  86.3964 155.9746 0002343  93.1297 267.0167 14.34524852955906
IRIDIUM 32 [+]          
1 24945U 97051B   15351.53763094  .00000089  00000-0  24845-4 0  9992
2 24945  86.3964 156.0536 0002062  90.3218 269.8214 14.34218898955921
IRIDIUM 33 [-]          
1 24946U 97051C   15351.51999828  .00000210  00000-0  69152-4 0  9993
2 24946  86.3878 155.9636 0006537 215.2659 202.3495 14.33445256955587
IRIDIUM 28 [-]          
1 24948U 97051E   15351.53020078  .00000253  00000-0  81280-4 0  9992
2 24948  86.3968 155.5051 0001702  89.0198 350.1854 14.35427074956010
IRIDIUM 30 [+]          
1 24949U 97051F   15351.53128569  .00000094  00000-0  26401-4 0  9994
2 24949  86.3965 156.1436 0002041  88.3952 271.7478 14.34219174955905
IRIDIUM 31 [+]          
1 24950U 97051G   15351.52494186  .00000087  00000-0  24006-4 0  9997
2 24950  86.3964 156.1469 0002100  94.6036 265.5400 14.34219150955912
IRIDIUM 19 [+]          
1 24965U 97056A   15351.57912176  .00000185  00000-0  58891-4 0  9995
2 24965  86.3966 187.5954 0002010  89.0904 271.0522 14.34217858954064
IRIDIUM 35 [+]          
1 24966U 97056B   15351.59179394  .00000059  00000-0  13857-4 0  9998
2 24966  86.3966 187.5880 0001994  88.6590 271.4834 14.34218833954041
IRIDIUM 36 [-]          
1 24967U 97056C   15351.54880954  .00000209  00000-0  65766-4 0  9998
2 24967  86.3977 187.0886 0002153  93.9027 317.1331 14.35472495954303
IRIDIUM 37 [+]          
1 24968U 97056D   15351.56641984  .00000060  00000-0  14513-4 0  9998
2 24968  86.3968 187.7689 0002034  89.5998 270.5431 14.34219339954047
IRIDIUM 34 [+]          
1 24969U 97056E   15351.51568564  .00000056  00000-0  12999-4 0  9997
2 24969  86.3968 187.7276 0002017  89.9251 270.2176 14.34218311954038
IRIDIUM 43 [+]          
1 25039U 97069A   15351.57327866  .00000071  00000-0  18367-4 0  9996
2 25039  86.3992 250.8290 0002049  86.9314 273.2117 14.34212203947825
IRIDIUM 41 [+]          
1 25040U 97069B   15351.57648646  .00000318  00000-0  10665-3 0  9996
2 25040  86.3980 250.7981 0001938  80.0326 329.3906 14.34214129947822
IRIDIUM 40 [+]          
1 25041U 97069C   15351.10391210  .00000321  00000-0  10767-3 0  9995
2 25041  86.3989 251.2201 0002547 108.0310 252.1164 14.34216394947773
IRIDIUM 39 [+]          
1 25042U 97069D   15351.59866278  .00000359  00000-0  12125-3 0  9991
2 25042  86.4000 251.0565 0001949  76.2001 283.9412 14.34214943947820
IRIDIUM 38 [-]          
1 25043U 97069E   15351.58839389  .00000225  00000-0  70858-4 0  9994
2 25043  86.3983 248.6244 0000936  78.1385 328.9834 14.35891722948159
IRIDIUM 42 [-]          
1 25077U 97077A   15351.26404290  .00000183  00000-0  58114-4 0  9998
2 25077  86.3985 250.9589 0001876  86.3692 273.7718 14.34433561943641
IRIDIUM 44 [-]          
1 25078U 97077B   15351.61090633  .00000293  00000-0  90439-4 0  9998
2 25078  86.3984 241.7358 0000409  96.6967 311.0949 14.37964527944943
IRIDIUM 45 [+]          
1 25104U 97082A   15351.51860263  .00000089  00000-0  24706-4 0  9994
2 25104  86.3962 156.1959 0000734  50.2734 309.8526 14.34218928941873
IRIDIUM 24 [-]          
1 25105U 97082B   15351.40771443  .00000351  00000-0  10586-3 0  9996
2 25105  86.3939 106.7723 0011284 359.1234  63.1124 14.39706939944041
IRIDIUM 47 [+]          
1 25106U 97082C   15351.47714360  .00000263  00000-0  86933-4 0  9991
2 25106  86.3966 124.3189 0002105  88.0156 272.1281 14.34203878941869
IRIDIUM 49 [+]          
1 25108U 97082E   15351.57235317  .00000280  00000-0  92876-4 0  9996
2 25108  86.3970 124.3673 0002002  91.8051 334.1898 14.34216583941888
IRIDIUM 52 [+]          
1 25169U 98010A   15351.58888454  .00000054  00000-0  12377-4 0  9999
2 25169  86.3977 219.2348 0002029  86.7730 273.3697 14.34213663933294
IRIDIUM 56 [+]          
1 25170U 98010B   15351.58254370  .00000262  00000-0  86336-4 0  9992
2 25170  86.3980 219.3412 0001792  80.9833 279.1565 14.34220729933276
IRIDIUM 54 [+]          
1 25171U 98010C   15351.54451959  .00000231  00000-0  75376-4 0  9999
2 25171  86.3977 219.2715 0002005  87.8906 272.2519 14.34218054933432
IRIDIUM 50 [+]          
1 25172U 98010D   15351.58787476  .00000223  00000-0  72715-4 0  9995
2 25172  86.3977 219.2125 0002082  87.3568 332.8571 14.34217474933270
IRIDIUM 53 [+]          
1 25173U 98010E   15351.60596666  .00000225  00000-0  73401-4 0  9993
2 25173  86.3978 219.2110 0001995  88.0363 327.3490 14.34218014933280
IRIDIUM 51 [S]          
1 25262U 98018A   15351.47127423 -.00000016  00000-0 -12953-4 0  9991
2 25262  86.3963 187.9198 0002068  83.3783 276.7648 14.34218646932659
IRIDIUM 61 [+]          
1 25263U 98018B   15351.57276727  .00000062  00000-0  15216-4 0  9999
2 25263  86.3968 187.7329 0002012  88.3812 271.7614 14.34218404928370
IRIDIUM 55 [+]          
1 25272U 98019A   15351.50590938  .00000093  00000-0  26156-4 0  9995
2 25272  86.3963 155.9788 0002021  90.6159 269.5268 14.34219656927561
IRIDIUM 57 [+]          
1 25273U 98019B   15351.55032245  .00000081  00000-0  21933-4 0  9998
2 25273  86.3967 156.2433 0002025  89.9229 270.2199 14.34218559927574
IRIDIUM 58 [+]          
1 25274U 98019C   15351.55665663  .00000087  00000-0  24040-4 0  9993
2 25274  86.3969 156.4220 0002035  88.3827 271.7602 14.34219069927573
IRIDIUM 59 [+]          
1 25275U 98019D   15351.56301809  .00000085  00000-0  23295-4 0  9993
2 25275  86.3965 156.3023 0002136  90.9895 269.1546 14.34217764927574
IRIDIUM 60 [+]          
1 25276U 98019E   15351.56934770  .00000078  00000-0  20679-4 0  9998
2 25276  86.3962 155.9407 0002008  90.9784 269.1642 14.34218687927570
IRIDIUM 62 [+]          
1 25285U 98021A   15351.39128545  .00000347  00000-0  11675-3 0  9991
2 25285  86.3977  92.9299 0002067  93.2576 266.8856 14.34212617926505
IRIDIUM 63 [-]          
1 25286U 98021B   15351.34532471  .00000220  00000-0  70882-4 0  9990
2 25286  86.4004  93.3195 0002314  93.7295 324.9897 14.34538283926507
IRIDIUM 64 [+]          
1 25287U 98021C   15351.19466174  .00000341  00000-0  11486-3 0  9998
2 25287  86.3978  93.0498 0002006 101.0633 259.0788 14.34220797926456
